GLOBALSTAR M024         
1 25883U 99043A   24237.52197274 -.00000021  00000+0  15540-2 0  9996
2 25883  52.0062 330.0025 0000926 347.5830 102.2494 11.10163015 81913
GLOBALSTAR M027         
1 25884U 99043B   24237.61493341  .00000005  00000+0  25965-2 0  9994
2 25884  52.0234  39.3670 0020702 231.0921 128.8026 11.04369874108472
GLOBALSTAR M054         
1 25885U 99043C   24237.19308860 -.00000057  00000+0  37558-3 0  9999
2 25885  52.0100 217.4484 0005416  27.9897 344.8459 11.39212239 85201
GLOBALSTAR M053         
1 25886U 99043D   24237.50369341 -.00000040  00000+0  82515-3 0  9991
2 25886  51.9973 147.3397 0003534 309.4382 221.3430 11.27657904 85979
GLOBALSTAR M058         
1 25907U 99049A   24237.59231896 -.00000047  00000+0  50640-3 0  9994
2 25907  51.9923 181.1513 0002426  59.8327 300.2748 11.93180781506130
GLOBALSTAR M050         
1 25908U 99049B   24237.63383135 -.00000120  00000+0 -36452-3 0  9992
2 25908  51.9964 210.8719 0008885 160.4078   9.9902 12.07438981112368
